{
    "links": {
        "self": "http://www.neowsapp.com/rest/v1/neo/3774367?api_key=iIulBulltgU6a56xZRHN4H3l9WmuAYTsLGpBGhQ2"
    },
    "id": "3774367",
    "neo_reference_id": "3774367",
    "name": "(2017 HG49)",
    "designation": "2017 HG49",
    "nasa_jpl_url": "http://ssd.jpl.nasa.gov/sbdb.cgi?sstr=3774367",
    "absolute_magnitude_h": 27.5,
    "estimated_diameter": {
        "kilometers": {
            "estimated_diameter_min": 0.008405334,
            "estimated_diameter_max": 0.0187948982
        },
        "meters": {
            "estimated_diameter_min": 8.4053340207,
            "estimated_diameter_max": 18.7948982439
        },
        "miles": {
            "estimated_diameter_min": 0.0052228308,
            "estimated_diameter_max": 0.0116786047
        },
        "feet": {
            "estimated_diameter_min": 27.5765560686,
            "estimated_diameter_max": 61.6630539546
        }
    },
    "is_potentially_hazardous_asteroid": false,
    "close_approach_data": [
        {
            "close_approach_date": "2017-04-21",
            "close_approach_date_full": "2017-Apr-21 03:42",
            "epoch_date_close_approach": 1492746120000,
            "relative_velocity": {
                "kilometers_per_second": "14.7759545838",
                "kilometers_per_hour": "53193.4365016969",
                "miles_per_hour": "33052.3328085127"
            },
            "miss_distance": {
                "astronomical": "0.0012840865",
                "lunar": "0.4995096485",
                "kilometers": "192096.605295755",
                "miles": "119363.295581219"
            },
            "orbiting_body": "Moon"
        },
        {
            "close_approach_date": "2017-04-21",
            "close_approach_date_full": "2017-Apr-21 04:34",
            "epoch_date_close_approach": 1492749240000,
            "relative_velocity": {
                "kilometers_per_second": "13.7813102643",
                "kilometers_per_hour": "49612.7169513558",
                "miles_per_hour": "30827.4129301355"
            },
            "miss_distance": {
                "astronomical": "0.0023811526",
                "lunar": "0.9262683614",
                "kilometers": "356215.357104962",
                "miles": "221341.9591419956"
            },
            "orbiting_body": "Earth"
        }
    ],
    "orbital_data": {
        "orbit_id": "1",
        "orbit_determination_date": "2017-05-01 21:12:07",
        "first_observation_date": "2017-04-27",
        "last_observation_date": "2017-05-01",
        "data_arc_in_days": 4,
        "observations_used": 14,
        "orbit_uncertainty": "8",
        "minimum_orbit_intersection": ".00123902",
        "jupiter_tisserand_invariant": "3.896",
        "epoch_osculation": "2457871.5",
        "eccentricity": ".5589261654608841",
        "semi_major_axis": "1.778071406897333",
        "inclination": ".6198695030151019",
        "ascending_node_longitude": "204.5286071038174",
        "orbital_period": "866.0086383458535",
        "perihelion_distance": ".7842607735245671",
        "perihelion_argument": "299.4811683071168",
        "aphelion_distance": "2.771882040270099",
        "perihelion_time": "2457819.511324270547",
        "mean_anomaly": "21.61170504990806",
        "mean_motion": ".4157002413828448",
        "equinox": "J2000",
        "orbit_class": {
            "orbit_class_type": "APO",
            "orbit_class_description": "Near-Earth asteroid orbits which cross the Earth’s orbit similar to that of 1862 Apollo",
            "orbit_class_range": "a (semi-major axis) > 1.0 AU; q (perihelion) < 1.017 AU"
        }
    },
    "is_sentry_object": false
}